[Satellite]
VERSION=1.1
NAME=CZ-6A DEB
NICKNAME=CZ-6A DEB
TLE1=1 54610U 22151NL  22342.01200065  .00004378  00000+0  15664-2 0  9999
TLE2=2 54610  98.7071 346.7544 0110800 236.7563 122.2962 14.31163981  3021
STATUS=0
